{"type": "FeatureCollection", "features": [ {"type": "Feature", "properties": {"norad_id": 66728, "name": "FLOCK 4H-25", "group": "last-30-days", "lat": 67.83381073542127, "lon": 54.14232123511077, "alt_km": 503.6181192110689, "timestamp": "2025-12-27T07:26:23.945320+00:00", "meta": {"OBJECT_NAME": "FLOCK 4H-25", "OBJECT_ID": "2025-276BQ", "EPOCH": "2025-12-26T21:38:46.986144", "MEAN_MOTION": 15.18264257, "ECCENTRICITY": 0.0001752, "INCLINATION": 97.439, "RA_OF_ASC_NODE": 72.4472, "ARG_OF_PERICENTER": 114.2808, "MEAN_ANOMALY": 245.861, "EPHEMERIS_TYPE": 0, "CLASSIFICATION_TYPE": "U", "NORAD_CAT_ID": 66728, "ELEMENT_SET_NO": 999, "REV_AT_EPOCH": 355, "BSTAR": 0.00034498418, "MEAN_MOTION_DOT": 7.002e-05, "MEAN_MOTION_DDOT": 0}, "tle": {"line1": "1 66728U 25276BQ  25360.90193271  .00007002  00000+0  34498-3 0  9998", "line2": "2 66728  97.4390  72.4472 0001752 114.2808 245.8610 15.18264257  3558"}}, "geometry": {"type": "Point", "coordinates": [54.14232123511077, 67.83381073542127]}}, {"type": "Feature", "properties": {"norad_id": 66729, "name": "FLOCK 4H-26", "group": "last-30-days", "lat": -41.75995497781404, "lon": 79.49926543314501, "alt_km": 520.4066298186453, "timestamp": "2025-12-27T07:26:23.945331+00:00", "meta": {"OBJECT_NAME": "FLOCK 4H-26", "OBJECT_ID": "2025-276BR", "EPOCH": "2025-12-26T22:07:42.413088", "MEAN_MOTION": 15.17199972, "ECCENTRICITY": 0.00036986, "INCLINATION": 97.4387, "RA_OF_ASC_NODE": 72.4193, "ARG_OF_PERICENTER": 241.4088, "MEAN_ANOMALY": 118.6774, "EPHEMERIS_TYPE": 0, "CLASSIFICATION_TYPE": "U", "NORAD_CAT_ID": 66729, "ELEMENT_SET_NO": 999, "REV_AT_EPOCH": 427, "BSTAR": 0.00038216585, "MEAN_MOTION_DOT": 7.531e-05, "MEAN_MOTION_DDOT": 0}, "tle": {"line1": "1 66729U 25276BR  25360.92201867  .00007531  00000+0  38217-3 0  9992", "line2": "2 66729  97.4387  72.4193 0003698 241.4088 118.6774 15.17199972  4277"}}, "geometry": {"type": "Point", "coordinates": [79.49926543314501, -41.75995497781404]}}, {"type": "Feature", "properties": {"norad_id": 66730, "name": "FLOCK 4H-27", "group": "last-30-days", "lat": 54.60952215261956, "lon": 62.23858262784063, "alt_km": 505.99220700117166, "timestamp": "2025-12-27T07:26:23.945341+00:00", "meta": {"OBJECT_NAME": "FLOCK 4H-27", "OBJECT_ID": "2025-276BS", "EPOCH": "2025-12-26T21:42:21.302208", "MEAN_MOTION": 15.18138399, "ECCENTRICITY": 0.00013528, "INCLINATION": 97.4365, "RA_OF_ASC_NODE": 72.4346, "ARG_OF_PERICENTER": 127.1008, "MEAN_ANOMALY": 233.035, "EPHEMERIS_TYPE": 0, "CLASSIFICATION_TYPE": "U", "NORAD_CAT_ID": 66730, "ELEMENT_SET_NO": 999, "REV_AT_EPOCH": 427, "BSTAR": 0.00057888549, "MEAN_MOTION_DOT": 0.0001176, "MEAN_MOTION_DDOT": 0}, "tle": {"line1": "1 66730U 25276BS  25360.90441322  .00011760  00000+0  57889-3 0  9999", "line2": "2 66730  97.4365  72.4346 0001352 127.1008 233.0350 15.18138399  4271"}}, "geometry": {"type": "Point", "coordinates": [62.23858262784063, 54.60952215261956]}}, {"type": "Feature", "properties": {"norad_id": 66731, "name": "FLOCK 4H-28", "group": "last-30-days", "lat": -40.281528899823755, "lon": 79.1530078579602, "alt_km": 520.4686800328336, "timestamp": "2025-12-27T07:26:23.945351+00:00", "meta": {"OBJECT_NAME": "FLOCK 4H-28", "OBJECT_ID": "2025-276BT", "EPOCH": "2025-12-26T22:07:18.314400", "MEAN_MOTION": 15.17186571, "ECCENTRICITY": 0.00032962, "INCLINATION": 97.4375, "RA_OF_ASC_NODE": 72.4155, "ARG_OF_PERICENTER": 242.2339, "MEAN_ANOMALY": 117.8561, "EPHEMERIS_TYPE": 0, "CLASSIFICATION_TYPE": "U", "NORAD_CAT_ID": 66731, "ELEMENT_SET_NO": 999, "REV_AT_EPOCH": 427, "BSTAR": 0.00036637771, "MEAN_MOTION_DOT": 7.214e-05, "MEAN_MOTION_DDOT": 0}, "tle": {"line1": "1 66731U 25276BT  25360.92173975  .00007214  00000+0  36638-3 0  9996", "line2": "2 66731  97.4375  72.4155 0003296 242.2339 117.8561 15.17186571  4273"}}, "geometry": {"type": "Point", "coordinates": [79.1530078579602, -40.281528899823755]}}, {"type": "Feature", "properties": {"norad_id": 66732, "name": "FLOCK 4H-29", "group": "last-30-days", "lat": -26.025510096286858, "lon": 76.453941249799, "alt_km": 519.4074221191922, "timestamp": "2025-12-27T07:26:23.945361+00:00", "meta": {"OBJECT_NAME": "FLOCK 4H-29", "OBJECT_ID": "2025-276BU", "EPOCH": "2025-12-26T20:28:34.811616", "MEAN_MOTION": 15.17325402, "ECCENTRICITY": 0.00020246, "INCLINATION": 97.4366, "RA_OF_ASC_NODE": 72.3488, "ARG_OF_PERICENTER": 256.0676, "MEAN_ANOMALY": 104.0333, "EPHEMERIS_TYPE": 0, "CLASSIFICATION_TYPE": "U", "NORAD_CAT_ID": 66732, "ELEMENT_SET_NO": 999, "REV_AT_EPOCH": 426, "BSTAR": 0.00032046513, "MEAN_MOTION_DOT": 6.326e-05, "MEAN_MOTION_DDOT": 0}, "tle": {"line1": "1 66732U 25276BU  25360.85318069  .00006326  00000+0  32047-3 0  9997", "line2": "2 66732  97.4366  72.3488 0002024 256.0676 104.0333 15.17325402  4269"}}, "geometry": {"type": "Point", "coordinates": [76.453941249799, -26.025510096286858]}}, {"type": "Feature", "properties": {"norad_id": 66733, "name": "FLOCK 4H-30", "group": "last-30-days", "lat": -32.70942714722983, "lon": 77.63738693153377, "alt_km": 520.6435065942451, "timestamp": "2025-12-27T07:26:23.945373+00:00", "meta": {"OBJECT_NAME": "FLOCK 4H-30", "OBJECT_ID": "2025-276BV", "EPOCH": "2025-12-26T22:05:17.923776", "MEAN_MOTION": 15.17251433, "ECCENTRICITY": 0.00030944, "INCLINATION": 97.4427, "RA_OF_ASC_NODE": 72.4387, "ARG_OF_PERICENTER": 232.2735, "MEAN_ANOMALY": 127.8218, "EPHEMERIS_TYPE": 0, "CLASSIFICATION_TYPE": "U", "NORAD_CAT_ID": 66733, "ELEMENT_SET_NO": 999, "REV_AT_EPOCH": 427, "BSTAR": -0.0013478485, "MEAN_MOTION_DOT": -0.00026773, "MEAN_MOTION_DDOT": 0}, "tle": {"line1": "1 66733U 25276BV  25360.92034634 -.00026773  00000+0 -13478-2 0  9995", "line2": "2 66733  97.4427  72.4387 0003094 232.2735 127.8218 15.17251433  4275"}}, "geometry": {"type": "Point", "coordinates": [77.63738693153377, -32.70942714722983]}}, {"type": "Feature", "properties": {"norad_id": 66734, "name": "FLOCK 4H-31", "group": "last-30-days", "lat": -32.52441787592043, "lon": 77.57265527446619, "alt_km": 518.9126474229988, "timestamp": "2025-12-27T07:26:23.945383+00:00", "meta": {"OBJECT_NAME": "FLOCK 4H-31", "OBJECT_ID": "2025-276BW", "EPOCH": "2025-12-26T22:05:16.648512", "MEAN_MOTION": 15.1730875, "ECCENTRICITY": 0.00027957, "INCLINATION": 97.4356, "RA_OF_ASC_NODE": 72.4131, "ARG_OF_PERICENTER": 274.7934, "MEAN_ANOMALY": 85.298, "EPHEMERIS_TYPE": 0, "CLASSIFICATION_TYPE": "U", "NORAD_CAT_ID": 66734, "ELEMENT_SET_NO": 999, "REV_AT_EPOCH": 427, "BSTAR": 0.0023893293, "MEAN_MOTION_DOT": 0.0004784, "MEAN_MOTION_DDOT": 0}, "tle": {"line1": "1 66734U 25276BW  25360.92033158  .00047840  00000+0  23893-2 0  9994", "line2": "2 66734  97.4356  72.4131 0002795 274.7934  85.2980 15.17308750  4271"}}, "geometry": {"type": "Point", "coordinates": [77.57265527446619, -32.52441787592043]}}, {"type": "Feature", "properties": {"norad_id": 66735, "name": "FLOCK 4H-32", "group": "last-30-days", "lat": -34.53843123204243, "lon": 77.97822979248053, "alt_km": 520.2271045384932, "timestamp": "2025-12-27T07:26:23.945393+00:00", "meta": {"OBJECT_NAME": "FLOCK 4H-32", "OBJECT_ID": "2025-276BX", "EPOCH": "2025-12-26T22:05:48.167232", "MEAN_MOTION": 15.17279777, "ECCENTRICITY": 0.00036072, "INCLINATION": 97.4421, "RA_OF_ASC_NODE": 72.4341, "ARG_OF_PERICENTER": 239.4025, "MEAN_ANOMALY": 120.6853, "EPHEMERIS_TYPE": 0, "CLASSIFICATION_TYPE": "U", "NORAD_CAT_ID": 66735, "ELEMENT_SET_NO": 999, "REV_AT_EPOCH": 427, "BSTAR": 0.00039532123, "MEAN_MOTION_DOT": 7.811e-05, "MEAN_MOTION_DDOT": 0}, "tle": {"line1": "1 66735U 25276BX  25360.92069638  .00007811  00000+0  39532-3 0  9999", "line2": "2 66735  97.4421  72.4341 0003607 239.4025 120.6853 15.17279777  4279"}}, "geometry": {"type": "Point", "coordinates": [77.97822979248053, -34.53843123204243]}}, {"type": "Feature", "properties": {"norad_id": 66736, "name": "FLOCK 4H-33", "group": "last-30-days", "lat": 71.45234317215004, "lon": 49.933401873684254, "alt_km": 503.4081052015181, "timestamp": "2025-12-27T07:26:23.945403+00:00", "meta": {"OBJECT_NAME": "FLOCK 4H-33", "OBJECT_ID": "2025-276BY", "EPOCH": "2025-12-26T21:37:47.122176", "MEAN_MOTION": 15.18351899, "ECCENTRICITY": 0.00028835, "INCLINATION": 97.4419, "RA_OF_ASC_NODE": 72.4596, "ARG_OF_PERICENTER": 149.4358, "MEAN_ANOMALY": 210.7044, "EPHEMERIS_TYPE": 0, "CLASSIFICATION_TYPE": "U", "NORAD_CAT_ID": 66736, "ELEMENT_SET_NO": 999, "REV_AT_EPOCH": 427, "BSTAR": 0.0004991007, "MEAN_MOTION_DOT": 0.00010191, "MEAN_MOTION_DDOT": 0}, "tle": {"line1": "1 66736U 25276BY  25360.90123984  .00010191  00000+0  49910-3 0  9999", "line2": "2 66736  97.4419  72.4596 0002883 149.4358 210.7044 15.18351899  4273"}}, "geometry": {"type": "Point", "coordinates": [49.933401873684254, 71.45234317215004]}}, {"type": "Feature", "properties": {"norad_id": 66737, "name": "FLOCK 4H-34", "group": "last-30-days", "lat": 60.56323430040181, "lon": 59.466732536820324, "alt_km": 505.59516617372265, "timestamp": "2025-12-27T07:26:23.945413+00:00", "meta": {"OBJECT_NAME": "FLOCK 4H-34", "OBJECT_ID": "2025-276BZ", "EPOCH": "2025-12-26T21:40:45.463872", "MEAN_MOTION": 15.18199478, "ECCENTRICITY": 0.00028289, "INCLINATION": 97.4433, "RA_OF_ASC_NODE": 72.4622, "ARG_OF_PERICENTER": 158.2754, "MEAN_ANOMALY": 201.8601, "EPHEMERIS_TYPE": 0, "CLASSIFICATION_TYPE": "U", "NORAD_CAT_ID": 66737, "ELEMENT_SET_NO": 999, "REV_AT_EPOCH": 352, "BSTAR": 0.00041238035, "MEAN_MOTION_DOT": 8.37e-05, "MEAN_MOTION_DDOT": 0}, "tle": {"line1": "1 66737U 25276BZ  25360.90330398  .00008370  00000+0  41238-3 0  9990", "line2": "2 66737  97.4433  72.4622 0002828 158.2754 201.8601 15.18199478  3527"}}, "geometry": {"type": "Point", "coordinates": [59.466732536820324, 60.56323430040181]}}]}